{
  "type": "FeatureCollection",
  "features": [
    {
      "type": "Feature",
      "properties": {
        "norad_id": 66688,
        "name": "TRANSPORTER-15 Y",
        "group": "last-30-days",
        "lat": 36.633962217349534,
        "lon": 60.446401347863336,
        "alt_km": 514.0560874603943,
        "timestamp": "2025-12-20T09:36:00.352126+00:00",
        "meta_object_name": "TRANSPORTER-15 Y",
        "meta_object_id": "2025-276Y",
        "meta_epoch": "2025-12-20T03:06:19.340064",
        "meta_mean_motion": 15.17044694,
        "meta_eccentricity": 0.000357,
        "meta_inclination": 97.4444,
        "meta_ra_of_asc_node": 65.7602,
        "meta_arg_of_pericenter": 261.0045,
        "meta_mean_anomaly": 99.0785,
        "meta_ephemeris_type": 0,
        "meta_classification_type": "U",
        "meta_norad_cat_id": 66688,
        "meta_element_set_no": 999,
        "meta_rev_at_epoch": 324,
        "meta_bstar": 0.00025729,
        "meta_mean_motion_dot": 5.025e-05,
        "meta_mean_motion_ddot": 0,
        "tle_line1": "1 66688U 25276Y   25354.12939051  .00005025  00000+0  25729-3 0  9994",
        "tle_line2": "2 66688  97.4444  65.7602 0003570 261.0045  99.0785 15.17044694  3245"
      },
      "geometry": {
        "type": "Point",
        "coordinates": [
          60.446401347863336,
          36.633962217349534
        ]
      }
    },
    {
      "type": "Feature",
      "properties": {
        "norad_id": 66689,
        "name": "TRANSPORTER-15 Z",
        "group": "last-30-days",
        "lat": 53.45950699074704,
        "lon": 55.86975653166598,
        "alt_km": 509.95598155735297,
        "timestamp": "2025-12-20T09:36:00.352136+00:00",
        "meta_object_name": "TRANSPORTER-15 Z",
        "meta_object_id": "2025-276Z",
        "meta_epoch": "2025-12-19T14:22:03.787680",
        "meta_mean_motion": 15.17181025,
        "meta_eccentricity": 0.0001369,
        "meta_inclination": 97.4426,
        "meta_ra_of_asc_node": 65.243,
        "meta_arg_of_pericenter": 288.6889,
        "meta_mean_anomaly": 71.4196,
        "meta_ephemeris_type": 0,
        "meta_classification_type": "U",
        "meta_norad_cat_id": 66689,
        "meta_element_set_no": 999,
        "meta_rev_at_epoch": 316,
        "meta_bstar": 0.00010187,
        "meta_mean_motion_dot": 1.956e-05,
        "meta_mean_motion_ddot": 0,
        "tle_line1": "1 66689U 25276Z   25353.59865495  .00001956  00000+0  10187-3 0  9996",
        "tle_line2": "2 66689  97.4426  65.2430 0001369 288.6889  71.4196 15.17181025  3166"
      },
      "geometry": {
        "type": "Point",
        "coordinates": [
          55.86975653166598,
          53.45950699074704
        ]
      }
    },
    {
      "type": "Feature",
      "properties": {
        "norad_id": 66690,
        "name": "TRANSPORTER-15 AA",
        "group": "last-30-days",
        "lat": 36.47677255486726,
        "lon": 60.47102164886779,
        "alt_km": 513.8381302999433,
        "timestamp": "2025-12-20T09:36:00.352146+00:00",
        "meta_object_name": "TRANSPORTER-15 AA",
        "meta_object_id": "2025-276AA",
        "meta_epoch": "2025-12-20T01:31:22.789344",
        "meta_mean_motion": 15.17032749,
        "meta_eccentricity": 0.0003269,
        "meta_inclination": 97.4408,
        "meta_ra_of_asc_node": 65.6855,
        "meta_arg_of_pericenter": 265.4105,
        "meta_mean_anomaly": 94.6755,
        "meta_ephemeris_type": 0,
        "meta_classification_type": "U",
        "meta_norad_cat_id": 66690,
        "meta_element_set_no": 999,
        "meta_rev_at_epoch": 323,
        "meta_bstar": 0.00037156,
        "meta_mean_motion_dot": 7.285e-05,
        "meta_mean_motion_ddot": 0,
        "tle_line1": "1 66690U 25276AA  25354.06345821  .00007285  00000+0  37156-3 0  9993",
        "tle_line2": "2 66690  97.4408  65.6855 0003269 265.4105  94.6755 15.17032749  3232"
      },
      "geometry": {
        "type": "Point",
        "coordinates": [
          60.47102164886779,
          36.47677255486726
        ]
      }
    },
    {
      "type": "Feature",
      "properties": {
        "norad_id": 66691,
        "name": "TRANSPORTER-15 AB",
        "group": "last-30-days",
        "lat": 45.26311226911608,
        "lon": 58.44436337724535,
        "alt_km": 512.3505533365651,
        "timestamp": "2025-12-20T09:36:00.352157+00:00",
        "meta_object_name": "TRANSPORTER-15 AB",
        "meta_object_id": "2025-276AB",
        "meta_epoch": "2025-12-19T23:54:07.570080",
        "meta_mean_motion": 15.17242522,
        "meta_eccentricity": 0.0003619,
        "meta_inclination": 97.443,
        "meta_ra_of_asc_node": 65.629,
        "meta_arg_of_pericenter": 262.8846,
        "meta_mean_anomaly": 97.1976,
        "meta_ephemeris_type": 0,
        "meta_classification_type": "U",
        "meta_norad_cat_id": 66691,
        "meta_element_set_no": 999,
        "meta_rev_at_epoch": 322,
        "meta_bstar": 0.00036926,
        "meta_mean_motion_dot": 7.283e-05,
        "meta_mean_motion_ddot": 0,
        "tle_line1": "1 66691U 25276AB  25353.99592095  .00007283  00000+0  36926-3 0  9994",
        "tle_line2": "2 66691  97.4430  65.6290 0003619 262.8846  97.1976 15.17242522  3227"
      },
      "geometry": {
        "type": "Point",
        "coordinates": [
          58.44436337724535,
          45.26311226911608
        ]
      }
    },
    {
      "type": "Feature",
      "properties": {
        "norad_id": 66692,
        "name": "TRANSPORTER-15 AC",
        "group": "last-30-days",
        "lat": 60.89742731244526,
        "lon": 52.453361854203564,
        "alt_km": 508.7915732991605,
        "timestamp": "2025-12-20T09:36:00.352168+00:00",
        "meta_object_name": "TRANSPORTER-15 AC",
        "meta_object_id": "2025-276AC",
        "meta_epoch": "2025-12-19T14:20:11.028768",
        "meta_mean_motion": 15.17362366,
        "meta_eccentricity": 0.0001801,
        "meta_inclination": 97.4431,
        "meta_ra_of_asc_node": 65.2479,
        "meta_arg_of_pericenter": 289.3043,
        "meta_mean_anomaly": 70.7996,
        "meta_ephemeris_type": 0,
        "meta_classification_type": "U",
        "meta_norad_cat_id": 66692,
        "meta_element_set_no": 999,
        "meta_rev_at_epoch": 316,
        "meta_bstar": 0.00022003,
        "meta_mean_motion_dot": 4.326e-05,
        "meta_mean_motion_ddot": 0,
        "tle_line1": "1 66692U 25276AC  25353.59734987  .00004326  00000+0  22003-3 0  9995",
        "tle_line2": "2 66692  97.4431  65.2479 0001801 289.3043  70.7996 15.17362366  3169"
      },
      "geometry": {
        "type": "Point",
        "coordinates": [
          52.453361854203564,
          60.89742731244526
        ]
      }
    },
    {
      "type": "Feature",
      "properties": {
        "norad_id": 66693,
        "name": "TRANSPORTER-15 AD",
        "group": "last-30-days",
        "lat": 58.931269702689896,
        "lon": 53.493850627849945,
        "alt_km": 509.10289451921835,
        "timestamp": "2025-12-20T09:36:00.352177+00:00",
        "meta_object_name": "TRANSPORTER-15 AD",
        "meta_object_id": "2025-276AD",
        "meta_epoch": "2025-12-20T04:35:24.550368",
        "meta_mean_motion": 15.17534825,
        "meta_eccentricity": 0.0003199,
        "meta_inclination": 97.4384,
        "meta_ra_of_asc_node": 65.8128,
        "meta_arg_of_pericenter": 288.2588,
        "meta_mean_anomaly": 71.8298,
        "meta_ephemeris_type": 0,
        "meta_classification_type": "U",
        "meta_norad_cat_id": 66693,
        "meta_element_set_no": 999,
        "meta_rev_at_epoch": 325,
        "meta_bstar": 0.00046232,
        "meta_mean_motion_dot": 9.215e-05,
        "meta_mean_motion_ddot": 0,
        "tle_line1": "1 66693U 25276AD  25354.19125637  .00009215  00000+0  46232-3 0  9991",
        "tle_line2": "2 66693  97.4384  65.8128 0003199 288.2588  71.8298 15.17534825  3256"
      },
      "geometry": {
        "type": "Point",
        "coordinates": [
          53.493850627849945,
          58.931269702689896
        ]
      }
    },
    {
      "type": "Feature",
      "properties": {
        "norad_id": 66694,
        "name": "TRANSPORTER-15 AE",
        "group": "last-30-days",
        "lat": 68.54752529182676,
        "lon": 46.60549043195093,
        "alt_km": 507.4659824892433,
        "timestamp": "2025-12-20T09:36:00.352188+00:00",
        "meta_object_name": "TRANSPORTER-15 AE",
        "meta_object_id": "2025-276AE",
        "meta_epoch": "2025-12-20T04:32:45.208032",
        "meta_mean_motion": 15.17519057,
        "meta_eccentricity": 0.0001283,
        "meta_inclination": 97.4422,
        "meta_ra_of_asc_node": 65.8285,
        "meta_arg_of_pericenter": 279.5897,
        "meta_mean_anomaly": 80.5192,
        "meta_ephemeris_type": 0,
        "meta_classification_type": "U",
        "meta_norad_cat_id": 66694,
        "meta_element_set_no": 999,
        "meta_rev_at_epoch": 325,
        "meta_bstar": 0.00033901,
        "meta_mean_motion_dot": 6.733e-05,
        "meta_mean_motion_ddot": 0,
        "tle_line1": "1 66694U 25276AE  25354.18941213  .00006733  00000+0  33901-3 0  9998",
        "tle_line2": "2 66694  97.4422  65.8285 0001283 279.5897  80.5192 15.17519057  3252"
      },
      "geometry": {
        "type": "Point",
        "coordinates": [
          46.60549043195093,
          68.54752529182676
        ]
      }
    }
  ]
}